{"spkid": "54357253", "covariance": {"labels": ["e", "q", "tp", "node", "peri", "i"], "elements": [{"label": "e", "value": ".1854440026488774", "title": "eccentricity", "units": null, "sigma": 1.56410270538279e-06, "name": "e"}, {"units": "au", "title": "perihelion distance", "value": ".7769543075948473", "name": "q", "sigma": 1.84298841993245e-06, "label": "q"}, {"label": "tp", "sigma": 6.82151839622227e-05, "name": "tp", "title": "time of perihelion passage", "value": "2460279.690215686106", "units": "TDB"}, {"label": "node", "sigma": 0.000104619378610686, "name": "om", "units": "deg", "title": "longitude of the ascending node", "value": "130.5996882319371"}, {"name": "w", "sigma": 5.23517227830167e-05, "title": "argument of perihelion", "value": "302.0503503328455", "units": "deg", "label": "peri"}, {"name": "i", "sigma": 7.27875314396477e-06, "units": "deg", "title": "inclination", "value": "1.536457422818473", "label": "i"}], "data": [["2.446417272985755E-12", "-2.882613002950884E-12", "1.007783601544256E-10", "1.413000574836163E-10", "-3.172336874813046E-11", "1.086133809852845E-11"], ["-2.882613002950884E-12", "3.396606316005102E-12", "-1.188286406636676E-10", "-1.665753781170974E-10", "3.739287596945574E-11", "-1.27953194004277E-11"], ["1.007783601544256E-10", "-1.188286406636676E-10", "4.653311322999885E-9", "6.295069503747692E-9", "-1.35057350199504E-9", "4.321562333277098E-10"], ["1.413000574836163E-10", "-1.665753781170974E-10", "6.295069503747692E-9", "1.094521438088602E-8", "-4.203210733981793E-9", "5.564236467093674E-10"], ["-3.172336874813046E-11", "3.739287596945574E-11", "-1.35057350199504E-9", "-4.203210733981793E-9", "2.740702878349833E-9", "-8.307627914558529E-11"], ["1.086133809852845E-11", "-1.27953194004277E-11", "4.321562333277098E-10", "5.564236467093674E-10", "-8.307627914558529E-11", "5.298024733077698E-11"]], "epoch": "2460441.5"}, "elements": [{"name": "e", "sigma": "1.5567E-6", "title": "eccentricity", "value": ".1859829841745965", "units": null, "label": "e"}, {"units": "au", "value": ".9521067687267739", "title": "semi-major axis", "name": "a", "sigma": "4.055E-7", "label": "a"}, {"units": "au", "title": "perihelion distance", "value": ".7750311106261362", "name": "q", "sigma": "1.8122E-6", "label": "q"}, {"label": "i", "sigma": "7.3296E-6", "name": "i", "units": "deg", "title": "inclination; angle with respect to x-y ecliptic plane", "value": "1.535904006469131"}, {"label": "node", "sigma": ".00010588", "name": "om", "value": "130.5405162210384", "title": "longitude of the ascending node", "units": "deg"}, {"sigma": "5.7623E-5", "name": "w", "units": "deg", "value": "302.5746528668965", "title": "argument of perihelion", "label": "peri"}, {"units": "deg", "title": "mean anomaly", "value": "255.6891577200637", "sigma": ".00057665", "name": "ma", "label": "M"}, {"value": "2461298.822713874336", "title": "time of perihelion passage", "units": "TDB", "sigma": ".00060631", "name": "tp", "label": "tp"}, {"label": "period", "sigma": ".00021678", "name": "per", "units": "d", "title": "sidereal orbital period", "value": "339.3336322581804"}, {"units": "deg/d", "value": "1.060902798241041", "title": "mean motion", "sigma": "6.7776E-7", "name": "n", "label": "n"}, {"sigma": "4.8092E-7", "name": "ad", "title": "aphelion distance", "value": "1.129182426827412", "units": "au", "label": "Q"}], "epoch": "2461200.5"}